{"type": "FeatureCollection", "features": [ {"type": "Feature", "properties": {"norad_id": 66816, "name": "STARLINK-36098", "group": "last-30-days", "lat": 40.56303052815188, "lon": -32.31354972548324, "alt_km": 293.5788806877372, "timestamp": "2025-12-11T07:02:22.479055+00:00", "meta": {"OBJECT_NAME": "STARLINK-36098", "OBJECT_ID": "2025-278AB", "EPOCH": "2025-12-10T12:00:02.999808", "MEAN_MOTION": 15.93464375, "ECCENTRICITY": 0.00018303, "INCLINATION": 42.9989, "RA_OF_ASC_NODE": 265.8959, "ARG_OF_PERICENTER": 263.5051, "MEAN_ANOMALY": 295.8032, "EPHEMERIS_TYPE": 0, "CLASSIFICATION_TYPE": "U", "NORAD_CAT_ID": 66816, "ELEMENT_SET_NO": 999, "REV_AT_EPOCH": 243, "BSTAR": -0.0037436835, "MEAN_MOTION_DOT": -0.01387571, "MEAN_MOTION_DDOT": 0.00055796717}, "tle": {"line1": "1 66816U 25278AB  25344.50003472 -.01387571  55797-3 -37437-2 0  9996", "line2": "2 66816  42.9989 265.8959 0001830 263.5051 295.8032 15.93464375  2433"}}, "geometry": {"type": "Point", "coordinates": [-32.31354972548324, 40.56303052815188]}}, {"type": "Feature", "properties": {"norad_id": 66817, "name": "STARLINK-35995", "group": "last-30-days", "lat": 41.739850915740604, "lon": -25.813659689014447, "alt_km": 293.1747252107125, "timestamp": "2025-12-11T07:02:22.479067+00:00", "meta": {"OBJECT_NAME": "STARLINK-35995", "OBJECT_ID": "2025-278AC", "EPOCH": "2025-12-10T12:00:02.999808", "MEAN_MOTION": 15.93575906, "ECCENTRICITY": 0.00018536, "INCLINATION": 42.9989, "RA_OF_ASC_NODE": 265.8838, "ARG_OF_PERICENTER": 263.3793, "MEAN_ANOMALY": 300.6662, "EPHEMERIS_TYPE": 0, "CLASSIFICATION_TYPE": "U", "NORAD_CAT_ID": 66817, "ELEMENT_SET_NO": 999, "REV_AT_EPOCH": 259, "BSTAR": -0.0037464369, "MEAN_MOTION_DOT": -0.01396721, "MEAN_MOTION_DDOT": 0.00056534847}, "tle": {"line1": "1 66817U 25278AC  25344.50003472 -.01396721  56535-3 -37464-2 0  9995", "line2": "2 66817  42.9989 265.8838 0001853 263.3793 300.6662 15.93575906  2590"}}, "geometry": {"type": "Point", "coordinates": [-25.813659689014447, 41.739850915740604]}}, {"type": "Feature", "properties": {"norad_id": 66818, "name": "STARLINK-35994", "group": "last-30-days", "lat": 41.27191401282436, "lon": -28.676347589697272, "alt_km": 293.329890787365, "timestamp": "2025-12-11T07:02:22.479077+00:00", "meta": {"OBJECT_NAME": "STARLINK-35994", "OBJECT_ID": "2025-278AD", "EPOCH": "2025-12-10T12:00:02.999808", "MEAN_MOTION": 15.93525447, "ECCENTRICITY": 0.00017772, "INCLINATION": 42.9989, "RA_OF_ASC_NODE": 265.8892, "ARG_OF_PERICENTER": 260.5813, "MEAN_ANOMALY": 301.4081, "EPHEMERIS_TYPE": 0, "CLASSIFICATION_TYPE": "U", "NORAD_CAT_ID": 66818, "ELEMENT_SET_NO": 999, "REV_AT_EPOCH": 259, "BSTAR": -0.0037487648, "MEAN_MOTION_DOT": -0.0139387, "MEAN_MOTION_DDOT": 0.00056295622}, "tle": {"line1": "1 66818U 25278AD  25344.50003472 -.01393870  56296-3 -37488-2 0  9998", "line2": "2 66818  42.9989 265.8892 0001777 260.5813 301.4081 15.93525447  2597"}}, "geometry": {"type": "Point", "coordinates": [-28.676347589697272, 41.27191401282436]}}, {"type": "Feature", "properties": {"norad_id": 66819, "name": "STARLINK-35989", "group": "last-30-days", "lat": 42.13646185913298, "lon": -22.90384851542594, "alt_km": 293.09193823130045, "timestamp": "2025-12-11T07:02:22.479087+00:00", "meta": {"OBJECT_NAME": "STARLINK-35989", "OBJECT_ID": "2025-278AE", "EPOCH": "2025-12-10T12:00:02.999808", "MEAN_MOTION": 15.93631454, "ECCENTRICITY": 0.00019265, "INCLINATION": 42.9989, "RA_OF_ASC_NODE": 265.8785, "ARG_OF_PERICENTER": 261.663, "MEAN_ANOMALY": 304.4577, "EPHEMERIS_TYPE": 0, "CLASSIFICATION_TYPE": "U", "NORAD_CAT_ID": 66819, "ELEMENT_SET_NO": 999, "REV_AT_EPOCH": 259, "BSTAR": -0.0037744127, "MEAN_MOTION_DOT": -0.01411151, "MEAN_MOTION_DDOT": 0.00057641679}, "tle": {"line1": "1 66819U 25278AE  25344.50003472 -.01411151  57642-3 -37744-2 0  9993", "line2": "2 66819  42.9989 265.8785 0001926 261.6630 304.4577 15.93631454  2593"}}, "geometry": {"type": "Point", "coordinates": [-22.90384851542594, 42.13646185913298]}}, {"type": "Feature", "properties": {"norad_id": 66820, "name": "KOMPSAT-7", "group": "last-30-days", "lat": 73.29247998056883, "lon": 137.75444374450436, "alt_km": 566.7449291620433, "timestamp": "2025-12-11T07:02:22.479097+00:00", "meta": {"OBJECT_NAME": "KOMPSAT-7", "OBJECT_ID": "2025-279A", "EPOCH": "2025-12-10T22:33:37.948320", "MEAN_MOTION": 14.98663462, "ECCENTRICITY": 0.00081382, "INCLINATION": 97.6403, "RA_OF_ASC_NODE": 290.8429, "ARG_OF_PERICENTER": 225.109, "MEAN_ANOMALY": 134.9473, "EPHEMERIS_TYPE": 0, "CLASSIFICATION_TYPE": "U", "NORAD_CAT_ID": 66820, "ELEMENT_SET_NO": 999, "REV_AT_EPOCH": 138, "BSTAR": 0.0003749417, "MEAN_MOTION_DOT": 4.449e-05, "MEAN_MOTION_DDOT": 0}, "tle": {"line1": "1 66820U 25279A   25344.94002255  .00004449  00000+0  37494-3 0  9992", "line2": "2 66820  97.6403 290.8429 0008138 225.1090 134.9473 14.98663462  1388"}}, "geometry": {"type": "Point", "coordinates": [137.75444374450436, 73.29247998056883]}}, {"type": "Feature", "properties": {"norad_id": 66821, "name": "STARLINK-35966", "group": "last-30-days", "lat": 42.94876556223488, "lon": -137.1872603503391, "alt_km": 313.81045829266895, "timestamp": "2025-12-11T07:02:22.479110+00:00", "meta": {"OBJECT_NAME": "STARLINK-35966", "OBJECT_ID": "2025-280A", "EPOCH": "2025-12-10T16:00:01.999584", "MEAN_MOTION": 15.87163122, "ECCENTRICITY": 0.00039131, "INCLINATION": 69.9939, "RA_OF_ASC_NODE": 204.7907, "ARG_OF_PERICENTER": 271.1294, "MEAN_ANOMALY": 158.5043, "EPHEMERIS_TYPE": 0, "CLASSIFICATION_TYPE": "U", "NORAD_CAT_ID": 66821, "ELEMENT_SET_NO": 999, "REV_AT_EPOCH": 256, "BSTAR": -0.0067612749, "MEAN_MOTION_DOT": -0.01557078, "MEAN_MOTION_DDOT": 0}, "tle": {"line1": "1 66821U 25280A   25344.66668981 -.01557078  00000+0 -67613-2 0  9997", "line2": "2 66821  69.9939 204.7907 0003913 271.1294 158.5043 15.87163122  2566"}}, "geometry": {"type": "Point", "coordinates": [-137.1872603503391, 42.94876556223488]}}, {"type": "Feature", "properties": {"norad_id": 66822, "name": "STARLINK-35958", "group": "last-30-days", "lat": 44.514833030243025, "lon": -136.02271654731453, "alt_km": 313.50163724773665, "timestamp": "2025-12-11T07:02:22.479122+00:00", "meta": {"OBJECT_NAME": "STARLINK-35958", "OBJECT_ID": "2025-280B", "EPOCH": "2025-12-10T16:00:01.999584", "MEAN_MOTION": 15.87203288, "ECCENTRICITY": 0.00039141, "INCLINATION": 69.9939, "RA_OF_ASC_NODE": 204.789, "ARG_OF_PERICENTER": 271.5252, "MEAN_ANOMALY": 159.7958, "EPHEMERIS_TYPE": 0, "CLASSIFICATION_TYPE": "U", "NORAD_CAT_ID": 66822, "ELEMENT_SET_NO": 999, "REV_AT_EPOCH": 256, "BSTAR": -0.006752443, "MEAN_MOTION_DOT": -0.0155802, "MEAN_MOTION_DDOT": 0}, "tle": {"line1": "1 66822U 25280B   25344.66668981 -.01558020  00000+0 -67524-2 0  9997", "line2": "2 66822  69.9939 204.7890 0003914 271.5252 159.7958 15.87203288  2563"}}, "geometry": {"type": "Point", "coordinates": [-136.02271654731453, 44.514833030243025]}}, {"type": "Feature", "properties": {"norad_id": 66823, "name": "STARLINK-35957", "group": "last-30-days", "lat": 46.1411643542333, "lon": -134.73487545936203, "alt_km": 313.2209882297266, "timestamp": "2025-12-11T07:02:22.479132+00:00", "meta": {"OBJECT_NAME": "STARLINK-35957", "OBJECT_ID": "2025-280C", "EPOCH": "2025-12-10T16:00:01.999584", "MEAN_MOTION": 15.87244205, "ECCENTRICITY": 0.00039284, "INCLINATION": 69.9938, "RA_OF_ASC_NODE": 204.7867, "ARG_OF_PERICENTER": 271.3861, "MEAN_ANOMALY": 161.7087, "EPHEMERIS_TYPE": 0, "CLASSIFICATION_TYPE": "U", "NORAD_CAT_ID": 66823, "ELEMENT_SET_NO": 999, "REV_AT_EPOCH": 256, "BSTAR": -0.0067558235, "MEAN_MOTION_DOT": -0.01561515, "MEAN_MOTION_DDOT": 0}, "tle": {"line1": "1 66823U 25280C   25344.66668981 -.01561515  00000+0 -67558-2 0  9998", "line2": "2 66823  69.9938 204.7867 0003928 271.3861 161.7087 15.87244205  2566"}}, "geometry": {"type": "Point", "coordinates": [-134.73487545936203, 46.1411643542333]}}, {"type": "Feature", "properties": {"norad_id": 66824, "name": "STARLINK-35896", "group": "last-30-days", "lat": 47.8156542008119, "lon": -133.31286669447974, "alt_km": 313.0803357488194, "timestamp": "2025-12-11T07:02:22.479142+00:00", "meta": {"OBJECT_NAME": "STARLINK-35896", "OBJECT_ID": "2025-280D", "EPOCH": "2025-12-10T18:00:02.000160", "MEAN_MOTION": 15.87016307, "ECCENTRICITY": 0.0003777, "INCLINATION": 69.9936, "RA_OF_ASC_NODE": 204.544, "ARG_OF_PERICENTER": 269.0036, "MEAN_ANOMALY": 281.9492, "EPHEMERIS_TYPE": 0, "CLASSIFICATION_TYPE": "U", "NORAD_CAT_ID": 66824, "ELEMENT_SET_NO": 999, "REV_AT_EPOCH": 258, "BSTAR": -0.0070024, "MEAN_MOTION_DOT": -0.01595429, "MEAN_MOTION_DDOT": 0}, "tle": {"line1": "1 66824U 25280D   25344.75002315 -.01595429  00000+0 -70024-2 0  9995", "line2": "2 66824  69.9936 204.5440 0003777 269.0036 281.9492 15.87016307  2587"}}, "geometry": {"type": "Point", "coordinates": [-133.31286669447974, 47.8156542008119]}}, {"type": "Feature", "properties": {"norad_id": 66825, "name": "STARLINK-35476", "group": "last-30-days", "lat": 49.530277752533316, "lon": -131.74014819969577, "alt_km": 312.73056692220143, "timestamp": "2025-12-11T07:02:22.479155+00:00", "meta": {"OBJECT_NAME": "STARLINK-35476", "OBJECT_ID": "2025-280E", "EPOCH": "2025-12-10T18:00:02.000160", "MEAN_MOTION": 15.87054454, "ECCENTRICITY": 0.0003729, "INCLINATION": 69.9936, "RA_OF_ASC_NODE": 204.5418, "ARG_OF_PERICENTER": 270.4103, "MEAN_ANOMALY": 282.4783, "EPHEMERIS_TYPE": 0, "CLASSIFICATION_TYPE": "U", "NORAD_CAT_ID": 66825, "ELEMENT_SET_NO": 999, "REV_AT_EPOCH": 243, "BSTAR": -0.0070194, "MEAN_MOTION_DOT": -0.0160143, "MEAN_MOTION_DDOT": 0}, "tle": {"line1": "1 66825U 25280E   25344.75002315 -.01601430  00000+0 -70194-2 0  9994", "line2": "2 66825  69.9936 204.5418 0003729 270.4103 282.4783 15.87054454  2439"}}, "geometry": {"type": "Point", "coordinates": [-131.74014819969577, 49.530277752533316]}}]}